{"type" : "FeatureCollection", "name" : "bregel_37", "source" : "lpdraw DB (read-only snapshot, 2026-08-29)", "features" : [{"type": "Feature", "when": {"timespans": [{"end": {"latest": "1950"}, "start": {"earliest": "1900"}}]}, "geometry": {"type": "Point", "coordinates": [62.355652, 37.294754]}, "properties": {"names": [{"toponym": "Yolotan"}], "types": [{"label": "inhabited place", "identifier": "aat:300008347", "sourceLabel": "settlement"}], "map_id": 96, "leaflet_id": 5153}}, {"type": "Feature", "when": {"timespans": [{"end": {"latest": "1950"}, "start": {"earliest": "1900"}}]}, "geometry": {"type": "Point", "coordinates": [60.062256, 42.103501]}, "properties": {"names": [{"toponym": "Manghït"}], "types": [{"label": "inhabited place", "identifier": "aat:300008347", "sourceLabel": "settlement"}], "map_id": 96, "leaflet_id": 5378}}, {"type": "Feature", "when": {"timespans": [{"end": {"latest": "1950"}, "start": {"earliest": "1900"}}]}, "geometry": {"type": "Point", "coordinates": [59.911194, 41.651301]}, "properties": {"names": [{"toponym": "Takhta"}], "types": [{"label": "inhabited place", "identifier": "aat:300008347", "sourceLabel": "settlement"}], "map_id": 96, "leaflet_id": 5394}}, {"type": "Feature", "when": {"timespans": [{"end": {"latest": "1950"}, "start": {"earliest": "1900"}}]}, "geometry": {"type": "Point", "coordinates": [60.699463, 41.658522]}, "properties": {"names": [{"toponym": "Sheykh ʿAbbas Veli"}], "types": [{"label": "inhabited place", "identifier": "aat:300008347", "sourceLabel": "settlement"}], "map_id": 96, "leaflet_id": 8634}}, {"type": "Feature", "when": {"timespans": [{"end": {"latest": "1950"}, "start": {"earliest": "1900"}}]}, "geometry": {"type": "Point", "coordinates": [57.442017, 38.440496]}, "properties": {"names": [{"toponym": "Baharden"}], "types": [{"label": "inhabited place", "identifier": "aat:300008347", "sourceLabel": "settlement"}], "map_id": 96, "leaflet_id": 46941}}, {"type": "Feature", "when": {"timespans": [{"end": {"latest": "1950"}, "start": {"earliest": "1900"}}]}, "geometry": {"type": "Point", "coordinates": [56.282959, 38.431983]}, "properties": {"names": [{"toponym": "Qarrï-qala"}], "types": [{"label": "inhabited place", "identifier": "aat:300008347", "sourceLabel": "settlement"}], "map_id": 96, "leaflet_id": 47657}}, {"type": "Feature", "when": {"timespans": [{"end": {"latest": "1950"}, "start": {"earliest": "1900"}}]}, "geometry": {"type": "Polygon", "coordinates": [[[62.984619, 39.164003], [62.786865, 39.266107], [62.896729, 39.402013], [63.094482, 39.368061], [63.154907, 39.240663], [63.127441, 39.134264], [63.039551, 39.100182], [62.984619, 39.164003]]]}, "properties": {"names": [{"toponym": "Khïzïr-eli (Turkmen tribe)"}], "types": [{"label": "cultural group", "identifier": "aat:300387171", "sourceLabel": "ethnic group"}], "map_id": 96, "leaflet_id": 58858}}, {"type": "Feature", "when": {"timespans": [{"end": {"latest": "1950"}, "start": {"earliest": "1900"}}]}, "geometry": {"type": "Polygon", "coordinates": [[[63.468018, 39.189553], [63.665771, 39.087338], [63.808594, 38.976438], [63.885498, 39.181041], [63.687744, 39.325608], [63.48999, 39.300118], [63.468018, 39.189553]]]}, "properties": {"names": [{"toponym": "Khïzïr-eli (Turkmen tribe)"}], "types": [{"label": "cultural group", "identifier": "aat:300387171", "sourceLabel": "ethnic group"}], "map_id": 96, "leaflet_id": 59248}}, {"type": "Feature", "when": {"timespans": [{"end": {"latest": "1950"}, "start": {"earliest": "1900"}}]}, "geometry": {"type": "Polygon", "coordinates": [[[64.885254, 38.121752], [65.006104, 38.048278], [65.099487, 38.113111], [65.083008, 38.21241], [64.989624, 38.246917], [64.907227, 38.208096], [64.885254, 38.121752]]]}, "properties": {"names": [{"toponym": "Murchali (Turkmen tribe)"}], "types": [{"label": "cultural group", "identifier": "aat:300387171", "sourceLabel": "ethnic group"}], "map_id": 96, "leaflet_id": 59757}}, {"type": "Feature", "when": {"timespans": [{"end": {"latest": "1950"}, "start": {"earliest": "1900"}}]}, "geometry": {"type": "Polygon", "coordinates": [[[64.297485, 38.664124], [64.226074, 38.543974], [64.242554, 38.436527], [64.308472, 38.561151], [64.297485, 38.664124]]]}, "properties": {"names": [{"toponym": "Arabachi (Turkmen tribe)"}], "types": [{"label": "cultural group", "identifier": "aat:300387171", "sourceLabel": "ethnic group"}], "map_id": 96, "leaflet_id": 61702}}, {"type": "Feature", "when": {"timespans": [{"end": {"latest": "1950"}, "start": {"earliest": "1900"}}]}, "geometry": {"type": "Polygon", "coordinates": [[[64.319458, 38.406413], [64.385376, 38.501014], [64.368896, 38.599783], [64.313965, 38.518201], [64.319458, 38.406413]]]}, "properties": {"names": [{"toponym": "Bayat (Turkmen tribe)"}], "types": [{"label": "cultural group", "identifier": "aat:300387171", "sourceLabel": "ethnic group"}], "map_id": 96, "leaflet_id": 61727}}, {"type": "Feature", "when": {"timespans": [{"end": {"latest": "1950"}, "start": {"earliest": "1900"}}]}, "geometry": {"type": "Polygon", "coordinates": [[[64.360657, 38.356771], [64.459534, 38.434234], [64.511719, 38.561009], [64.396362, 38.479383], [64.360657, 38.356771]]]}, "properties": {"names": [{"toponym": "Olam (Turkmen tribe)"}], "types": [{"label": "cultural group", "identifier": "aat:300387171", "sourceLabel": "ethnic group"}], "map_id": 96, "leaflet_id": 65088}}, {"type": "Feature", "when": {"timespans": [{"end": {"latest": "1950"}, "start": {"earliest": "1900"}}]}, "geometry": {"type": "Polygon", "coordinates": [[[63.649292, 39.040373], [63.468018, 38.848193], [63.248291, 38.732636], [63.380127, 38.899492], [63.649292, 39.040373]]]}, "properties": {"names": [{"toponym": "Bayat (Turkmen tribe)"}], "types": [{"label": "cultural group", "identifier": "aat:300387171", "sourceLabel": "ethnic group"}], "map_id": 96, "leaflet_id": 66914}}, {"type": "Feature", "when": {"timespans": [{"end": {"latest": "1950"}, "start": {"earliest": "1900"}}]}, "geometry": {"type": "Polygon", "coordinates": [[[63.229065, 38.841997], [63.363647, 38.961647], [63.533936, 39.053384], [63.415833, 38.936025], [63.229065, 38.841997]]]}, "properties": {"names": [{"toponym": "Khïzïr-eli (Turkmen tribe)"}], "types": [{"label": "cultural group", "identifier": "aat:300387171", "sourceLabel": "ethnic group"}], "map_id": 96, "leaflet_id": 70752}}, {"type": "Feature", "when": {"timespans": [{"end": {"latest": "1950"}, "start": {"earliest": "1900"}}]}, "geometry": {"type": "Polygon", "coordinates": [[[63.116455, 38.91269], [63.292236, 39.036487], [63.522949, 39.087649], [63.358154, 38.981018], [63.116455, 38.91269]]]}, "properties": {"names": [{"toponym": "Bayat (Turkmen tribe)"}], "types": [{"label": "cultural group", "identifier": "aat:300387171", "sourceLabel": "ethnic group"}], "map_id": 96, "leaflet_id": 74601}}, {"type": "Feature", "when": {"timespans": [{"end": {"latest": "1950"}, "start": {"earliest": "1900"}}]}, "geometry": {"type": "Polygon", "coordinates": [[[60.924683, 41.685094], [61.004333, 41.705594], [61.075745, 41.699445], [61.141663, 41.65228], [61.163635, 41.590708], [61.11969, 41.537298], [61.053772, 41.502352], [60.954895, 41.485901], [60.856018, 41.516744], [60.817566, 41.568117], [60.828552, 41.644073], [60.924683, 41.685094]]]}, "properties": {"names": [{"toponym": "Arabachi (Turkmen tribe)"}], "types": [{"label": "cultural group", "identifier": "aat:300387171", "sourceLabel": "ethnic group"}], "map_id": 96, "leaflet_id": 76325}}, {"type": "Feature", "when": {"timespans": [{"end": {"latest": "1950"}, "start": {"earliest": "1900"}}]}, "geometry": {"type": "Polygon", "coordinates": [[[60.188599, 41.861184], [60.270996, 41.900022], [60.26001, 41.969464], [60.199585, 41.998035], [60.108948, 41.991914], [60.067749, 41.953132], [60.084229, 41.895935], [60.108948, 41.875496], [60.188599, 41.861184]]]}, "properties": {"names": [{"toponym": "Khïzïr-eli (Turkmen tribe)"}], "types": [{"label": "cultural group", "identifier": "aat:300387171", "sourceLabel": "ethnic group"}], "map_id": 96, "leaflet_id": 76358}}, {"type": "Feature", "when": {"timespans": [{"end": {"latest": "1950"}, "start": {"earliest": "1900"}}]}, "geometry": {"type": "Polygon", "coordinates": [[[62.53418, 37.50022], [62.644043, 37.656882], [62.556152, 37.830563], [62.62207, 38.05574], [62.424316, 38.211226], [62.215576, 38.150799], [62.105713, 37.986528], [62.160645, 37.735089], [62.303467, 37.54377], [62.53418, 37.50022]]]}, "properties": {"names": [{"toponym": "Ersarï (Turkmen tribe)"}], "types": [{"label": "cultural group", "identifier": "aat:300387171", "sourceLabel": "ethnic group"}], "map_id": 96, "leaflet_id": 80954}}, {"type": "Feature", "when": {"timespans": [{"end": {"latest": "1950"}, "start": {"earliest": "1900"}}]}, "geometry": {"type": "Polygon", "coordinates": [[[64.248047, 35.75585], [64.555664, 35.827114], [64.940186, 36.138144], [65.01709, 36.668478], [65.050049, 37.020018], [65.258789, 37.037553], [65.511475, 36.853238], [65.698242, 36.615607], [65.775146, 36.615607], [65.720215, 37.952417], [65.456543, 38.220372], [64.973145, 38.401331], [64.588623, 38.599006], [64.171143, 38.761894], [63.94043, 38.804697], [63.61084, 38.452951], [63.380127, 38.07355], [63.4021, 37.726924], [63.786621, 37.23891], [63.808594, 36.94984], [63.555908, 36.765313], [63.479004, 36.50093], [63.621826, 36.27992], [63.81958, 36.031643], [64.017334, 35.827114], [64.248047, 35.75585]]]}, "properties": {"names": [{"toponym": "Ersarï (Turkmen tribe)"}], "types": [{"label": "cultural group", "identifier": "aat:300387171", "sourceLabel": "ethnic group"}], "map_id": 96, "leaflet_id": 90551}}, {"type": "Feature", "when": {"timespans": [{"end": {"latest": "1950"}, "start": {"earliest": "1900"}}]}, "geometry": {"type": "Polygon", "coordinates": [[[62.215576, 39.975902], [62.545166, 40.043194], [62.86377, 39.832686], [63.105469, 39.553825], [63.391113, 39.401244], [63.48999, 39.239823], [63.435059, 39.103602], [62.95166, 38.915866], [62.424316, 38.932954], [61.940918, 39.05245], [61.578369, 39.307835], [61.490479, 39.570757], [61.523438, 39.849551], [61.831055, 40.001145], [62.215576, 39.975902]]]}, "properties": {"names": [{"toponym": "Salor (Turkmen tribe)"}], "types": [{"label": "cultural group", "identifier": "aat:300387171", "sourceLabel": "ethnic group"}], "map_id": 96, "leaflet_id": 90596}}, {"type": "Feature", "when": {"timespans": [{"end": {"latest": "1950"}, "start": {"earliest": "1900"}}]}, "geometry": {"type": "Polygon", "coordinates": [[[61.083984, 36.949379], [61.270752, 36.879136], [61.468506, 36.632773], [61.534424, 36.367936], [61.589355, 35.995645], [61.677246, 35.630515], [61.633301, 35.317493], [61.413574, 35.227835], [61.259766, 35.478628], [61.226807, 35.764294], [61.105957, 35.960097], [61.193848, 36.137679], [61.094971, 36.31486], [61.160889, 36.509295], [61.029053, 36.773648], [61.083984, 36.949379]]]}, "properties": {"names": [{"toponym": "Salor (Turkmen tribe)"}], "types": [{"label": "cultural group", "identifier": "aat:300387171", "sourceLabel": "ethnic group"}], "map_id": 96, "leaflet_id": 94697}}, {"type": "Feature", "when": {"timespans": [{"end": {"latest": "1950"}, "start": {"earliest": "1900"}}]}, "geometry": {"type": "Polygon", "coordinates": [[[65.209351, 36.914525], [65.341187, 36.914525], [65.43457, 36.839855], [65.368652, 36.747514], [65.198364, 36.699101], [65.077515, 36.765111], [65.088501, 36.866217], [65.209351, 36.914525]]]}, "properties": {"names": [{"toponym": "Ali-eli (Turkmen tribe)"}], "types": [{"label": "cultural group", "identifier": "aat:300387171", "sourceLabel": "ethnic group"}], "map_id": 96, "leaflet_id": 95335}}, {"type": "Feature", "when": {"timespans": [{"end": {"latest": "1950"}, "start": {"earliest": "1900"}}]}, "geometry": {"type": "Polygon", "coordinates": [[[61.226807, 41.219852], [61.419067, 41.211591], [61.64978, 41.178537], [61.792603, 41.112377], [61.907959, 41.004726], [61.962891, 40.809679], [62.039795, 40.626561], [62.122192, 40.484716], [62.254028, 40.37186], [62.336426, 40.23786], [62.29248, 40.095193], [62.166138, 40.048972], [61.902466, 40.053176], [61.534424, 40.107794], [60.957642, 40.35094], [60.496216, 40.718183], [60.463257, 40.913499], [60.617065, 41.054433], [60.820313, 41.174404], [61.083984, 41.215722], [61.226807, 41.219852]]]}, "properties": {"names": [{"toponym": "Ata (Turkmen tribe)"}], "types": [{"label": "cultural group", "identifier": "aat:300387171", "sourceLabel": "ethnic group"}], "map_id": 96, "leaflet_id": 104922}}, {"type": "Feature", "when": {"timespans": [{"end": {"latest": "1950"}, "start": {"earliest": "1900"}}]}, "geometry": {"type": "Polygon", "coordinates": [[[59.128418, 41.50057], [59.381104, 41.730459], [59.556885, 41.853277], [59.39209, 42.016668], [59.172363, 41.975859], [58.908691, 41.787803], [58.710938, 41.52524], [58.721924, 41.344107], [59.128418, 41.50057]]]}, "properties": {"names": [{"toponym": "Yemreli (Turkmen tribe)"}], "types": [{"label": "cultural group", "identifier": "aat:300387171", "sourceLabel": "ethnic group"}], "map_id": 96, "leaflet_id": 106516}}, {"type": "Feature", "when": {"timespans": [{"end": {"latest": "1950"}, "start": {"earliest": "1900"}}]}, "geometry": {"type": "Polygon", "coordinates": [[[59.463501, 42.21635], [59.661255, 42.15125], [59.776611, 42.045318], [59.864502, 42.037162], [59.908447, 42.10238], [59.859009, 42.204149], [59.732666, 42.281384], [59.545898, 42.281384], [59.463501, 42.21635]]]}, "properties": {"names": [{"toponym": "Chowdur (Turkmen tribe)"}], "types": [{"label": "cultural group", "identifier": "aat:300387171", "sourceLabel": "ethnic group"}], "map_id": 96, "leaflet_id": 113039}}, {"type": "Feature", "when": {"timespans": [{"end": {"latest": "1950"}, "start": {"earliest": "1900"}}]}, "geometry": {"type": "Polygon", "coordinates": [[[59.414063, 42.147179], [59.545898, 42.134964], [59.622803, 42.094231], [59.760132, 42.004528], [59.787598, 41.918783], [59.639282, 41.926955], [59.490967, 42.000447], [59.436035, 42.082007], [59.414063, 42.147179]]]}, "properties": {"names": [{"toponym": "Qaradashlï (Turkmen tribe)"}], "types": [{"label": "cultural group", "identifier": "aat:300387171", "sourceLabel": "ethnic group"}], "map_id": 96, "leaflet_id": 113072}}, {"type": "Feature", "when": {"timespans": [{"end": {"latest": "1950"}, "start": {"earliest": "1900"}}]}, "geometry": {"type": "Polygon", "coordinates": [[[60.803833, 41.672842], [60.996094, 41.746627], [60.935669, 41.885768], [60.792847, 41.910291], [60.628052, 41.873503], [60.600586, 41.750724], [60.671997, 41.685146], [60.803833, 41.672842]]]}, "properties": {"names": [{"toponym": "Ata (Turkmen tribe)"}], "types": [{"label": "cultural group", "identifier": "aat:300387171", "sourceLabel": "ethnic group"}], "map_id": 96, "leaflet_id": 117625}}, {"type": "Feature", "when": {"timespans": [{"end": {"latest": "1950"}, "start": {"earliest": "1900"}}]}, "geometry": {"type": "Polygon", "coordinates": [[[59.523926, 41.730382], [59.787598, 41.771347], [59.996338, 41.648372], [59.996338, 41.459354], [59.732666, 41.360517], [59.337158, 41.360517], [59.282227, 41.541604], [59.523926, 41.730382]]]}, "properties": {"names": [{"toponym": "Yomut Bayram-Shalï (Turkmen tribe)"}], "types": [{"label": "cultural group", "identifier": "aat:300387171", "sourceLabel": "ethnic group"}], "map_id": 96, "leaflet_id": 123781}}, {"type": "Feature", "when": {"timespans": [{"end": {"latest": "1950"}, "start": {"earliest": "1900"}}]}, "geometry": {"type": "Polygon", "coordinates": [[[57.601318, 40.94681], [58.106689, 41.170393], [58.623047, 41.516676], [58.831787, 41.787463], [59.139404, 42.032645], [59.331665, 42.215913], [59.133911, 42.248438], [59.040527, 42.427029], [58.809814, 42.605112], [58.634033, 42.641475], [58.52417, 42.588943], [58.518677, 42.39865], [58.441772, 42.272821], [58.200073, 42.285009], [58.024292, 42.195576], [57.903442, 42.012249], [57.859497, 41.799744], [57.782593, 41.664519], [57.5354, 41.570103], [57.354126, 41.422043], [57.161865, 41.24888], [57.01355, 41.046274], [57.057495, 40.867961], [57.249756, 40.859656], [57.480469, 40.884569], [57.601318, 40.94681]]]}, "properties": {"names": [{"toponym": "Yomut Bayram-Shalï (Turkmen tribe)"}], "types": [{"label": "cultural group", "identifier": "aat:300387171", "sourceLabel": "ethnic group"}], "map_id": 96, "leaflet_id": 125529}}, {"type": "Feature", "when": {"timespans": [{"end": {"latest": "1950"}, "start": {"earliest": "1900"}}]}, "geometry": {"type": "Polygon", "coordinates": [[[54.008789, 41.836147], [54.338379, 42.10559], [54.667969, 42.317075], [55.019531, 42.211421], [55.162354, 41.966928], [55.118408, 41.787035], [55.030518, 41.655886], [54.656982, 41.655886], [54.360352, 41.672294], [54.074707, 41.672294], [54.008789, 41.836147]]]}, "properties": {"names": [{"toponym": "Chowdur (Turkmen tribe)"}], "types": [{"label": "cultural group", "identifier": "aat:300387171", "sourceLabel": "ethnic group"}], "map_id": 96, "leaflet_id": 130172}}, {"type": "Feature", "when": {"timespans": [{"end": {"latest": "1950"}, "start": {"earliest": "1900"}}]}, "geometry": {"type": "Polygon", "coordinates": [[[54.063721, 41.631048], [54.536133, 41.631048], [54.755859, 41.548913], [54.953613, 41.409042], [55.294189, 41.483129], [55.623779, 41.507805], [55.843506, 41.376087], [55.689697, 41.178009], [55.623779, 40.929565], [55.733643, 40.538453], [55.92041, 40.270849], [55.964355, 40.069449], [56.173096, 39.918007], [56.293945, 39.783109], [56.206055, 39.58873], [56.008301, 39.342865], [55.92041, 39.096131], [56.04126, 38.814311], [56.008301, 38.600066], [55.733643, 38.402393], [55.568848, 38.290426], [55.612793, 38.083262], [55.557861, 37.875509], [55.26123, 37.458724], [55.019531, 37.231728], [54.645996, 37.074175], [54.294434, 36.933852], [54.030762, 37.161745], [54.052734, 37.388952], [54.206543, 37.598072], [53.833008, 37.858649], [53.789063, 38.514662], [53.942871, 38.925936], [53.695679, 39.228167], [53.712158, 39.449001], [53.811035, 39.601477], [53.887939, 39.719838], [53.887939, 39.897], [53.739624, 40.027468], [53.4375, 40.061097], [53.184814, 40.052692], [52.987061, 40.082107], [52.932129, 40.266713], [52.959595, 40.475882], [53.195801, 40.596902], [53.596802, 40.613578], [53.876953, 40.638583], [54.113159, 40.696892], [54.316406, 40.646916], [54.234009, 40.809201], [54.272461, 40.846595], [54.398804, 40.854902], [54.442749, 40.775944], [54.541626, 40.796732], [54.750366, 40.97109], [54.662476, 41.144989], [54.475708, 41.252411], [54.28894, 41.355534], [54.151611, 41.446148], [54.063721, 41.631048]]]}, "properties": {"names": [{"toponym": "Yomut Qara-Choqa (Turkmen tribe)"}], "types": [{"label": "cultural group", "identifier": "aat:300387171", "sourceLabel": "ethnic group"}], "map_id": 96, "leaflet_id": 133813}}, {"type": "Feature", "when": {"timespans": [{"end": {"latest": "1950"}, "start": {"earliest": "1900"}}]}, "geometry": {"type": "Polygon", "coordinates": [[[53.272705, 40.638594], [53.338623, 40.82168], [53.4375, 40.775955], [53.552856, 40.879828], [53.624268, 40.796743], [53.64624, 40.696903], [53.75061, 40.667755], [53.843994, 40.638594], [53.272705, 40.638594]]]}, "properties": {"names": [{"toponym": "Shikh (Turkmen tribe)"}], "types": [{"label": "cultural group", "identifier": "aat:300387171", "sourceLabel": "ethnic group"}], "map_id": 96, "leaflet_id": 136662}}, {"type": "Feature", "when": {"timespans": [{"end": {"latest": "1950"}, "start": {"earliest": "1900"}}]}, "geometry": {"type": "Polygon", "coordinates": [[[52.608032, 40.371494], [52.921143, 40.358943], [52.926636, 40.174588], [52.597046, 40.187174], [52.630005, 40.258448], [52.608032, 40.371494]]]}, "properties": {"names": [{"toponym": "Shikh (Turkmen tribe)"}], "types": [{"label": "cultural group", "identifier": "aat:300387171", "sourceLabel": "ethnic group"}], "map_id": 96, "leaflet_id": 138969}}, {"type": "Feature", "when": {"timespans": [{"end": {"latest": "1950"}, "start": {"earliest": "1900"}}]}, "geometry": {"type": "Polygon", "coordinates": [[[52.772827, 41.149238], [52.783813, 41.07891], [52.860718, 41.00022], [52.761841, 40.738625], [52.910156, 40.622029], [53.091431, 40.580338], [53.206787, 40.667859], [53.250732, 40.7719], [53.206787, 40.834247], [53.10791, 40.7719], [53.047485, 40.838402], [52.954102, 40.842556], [52.965088, 40.97535], [52.910156, 41.070632], [52.833252, 41.18644], [52.772827, 41.149238]]]}, "properties": {"names": [{"toponym": "Oghurjalï (Turkmen tribe)"}], "types": [{"label": "cultural group", "identifier": "aat:300387171", "sourceLabel": "ethnic group"}], "map_id": 96, "leaflet_id": 139016}}, {"type": "Feature", "when": {"timespans": [{"end": {"latest": "1950"}, "start": {"earliest": "1900"}}]}, "geometry": {"type": "Polygon", "coordinates": [[[53.574829, 39.283619], [53.64624, 39.427975], [53.519897, 39.500041], [53.393555, 39.495804], [53.184814, 39.504278], [53.173828, 39.643949], [53.069458, 39.643949], [53.031006, 39.550866], [52.954102, 39.470376], [52.871704, 39.394036], [52.998047, 39.211329], [53.063965, 39.287869], [53.047485, 39.402522], [53.168335, 39.444938], [53.377075, 39.440698], [53.574829, 39.283619]]]}, "properties": {"names": [{"toponym": "Oghurjalï (Turkmen tribe)"}], "types": [{"label": "cultural group", "identifier": "aat:300387171", "sourceLabel": "ethnic group"}], "map_id": 96, "leaflet_id": 141607}}, {"type": "Feature", "when": {"timespans": [{"end": {"latest": "1950"}, "start": {"earliest": "1900"}}]}, "geometry": {"type": "Polygon", "coordinates": [[[52.668457, 40.048664], [53.151855, 40.015029], [52.992554, 40.086484], [52.959595, 40.16206], [52.624512, 40.166256], [52.668457, 40.048664]]]}, "properties": {"names": [{"toponym": "Oghurjalï (Turkmen tribe)"}], "types": [{"label": "cultural group", "identifier": "aat:300387171", "sourceLabel": "ethnic group"}], "map_id": 96, "leaflet_id": 141634}}, {"type": "Feature", "when": {"timespans": [{"end": {"latest": "1950"}, "start": {"earliest": "1900"}}]}, "geometry": {"type": "LineString", "coordinates": [[52.734375, 39.932797], [52.863464, 39.989615], [52.885437, 39.848536], [52.728882, 39.92227], [52.742615, 39.947532]]}, "properties": {"names": [{"toponym": "Shikh (Turkmen tribe)"}], "types": [{"label": "cultural group", "identifier": "aat:300387171", "sourceLabel": "ethnic group"}], "map_id": 96, "leaflet_id": 146235}}, {"type": "Feature", "when": {"timespans": [{"end": {"latest": "1950"}, "start": {"earliest": "1900"}}]}, "geometry": {"type": "LineString", "coordinates": [[52.638245, 40.033774], [52.737122, 39.945428], [52.896423, 40.014853], [52.649231, 40.04008]]}, "properties": {"names": [{"toponym": "Khoja (Turkmen tribe)"}], "types": [{"label": "cultural group", "identifier": "aat:300387171", "sourceLabel": "ethnic group"}], "map_id": 96, "leaflet_id": 146260}}, {"type": "Feature", "when": {"timespans": [{"end": {"latest": "1950"}, "start": {"earliest": "1900"}}]}, "geometry": {"type": "LineString", "coordinates": [[52.605286, 40.381835], [52.668457, 40.540592], [52.797546, 40.661495], [53.074951, 40.563538], [52.967834, 40.452904], [52.926636, 40.360918], [52.599792, 40.375561], [52.610779, 40.398564]]}, "properties": {"names": [{"toponym": "Khoja (Turkmen tribe)"}], "types": [{"label": "cultural group", "identifier": "aat:300387171", "sourceLabel": "ethnic group"}], "map_id": 96, "leaflet_id": 146293}}, {"type": "Feature", "when": {"timespans": [{"end": {"latest": "1950"}, "start": {"earliest": "1900"}}]}, "geometry": {"type": "LineString", "coordinates": [[56.365356, 38.727776], [56.37085, 38.629184], [56.574097, 38.612023], [56.623535, 38.68064], [56.508179, 38.73206], [56.37085, 38.73206]]}, "properties": {"names": [{"toponym": "Shikh (Turkmen tribe)"}], "types": [{"label": "cultural group", "identifier": "aat:300387171", "sourceLabel": "ethnic group"}], "map_id": 96, "leaflet_id": 150674}}, {"type": "Feature", "when": {"timespans": [{"end": {"latest": "1950"}, "start": {"earliest": "1900"}}]}, "geometry": {"type": "LineString", "coordinates": [[56.140137, 38.740913], [56.167603, 38.60802], [56.37085, 38.629471], [56.348877, 38.740913], [56.151123, 38.740913]]}, "properties": {"names": [{"toponym": "Khoja (Turkmen tribe)"}], "types": [{"label": "cultural group", "identifier": "aat:300387171", "sourceLabel": "ethnic group"}], "map_id": 96, "leaflet_id": 153717}}, {"type": "Feature", "when": {"timespans": [{"end": {"latest": "1950"}, "start": {"earliest": "1900"}}]}, "geometry": {"type": "LineString", "coordinates": [[56.876221, 38.693786], [57.112427, 38.813685], [57.134399, 38.92484], [56.859741, 38.882109], [56.672974, 38.809407], [56.689453, 38.719496], [56.865234, 38.66378], [56.903687, 38.72378]]}, "properties": {"names": [{"toponym": "Ata (Turkmen tribe)"}], "types": [{"label": "cultural group", "identifier": "aat:300387171", "sourceLabel": "ethnic group"}], "map_id": 96, "leaflet_id": 153751}}, {"type": "Feature", "when": {"timespans": [{"end": {"latest": "1950"}, "start": {"earliest": "1900"}}]}, "geometry": {"type": "Polygon", "coordinates": [[[56.66748, 38.740852], [56.859741, 38.706581], [57.035522, 38.7537], [57.134399, 38.886322], [56.958618, 38.90769], [56.727905, 38.847844], [56.66748, 38.740852]]]}, "properties": {"names": [{"toponym": "Ata (Turkmen tribe)"}], "types": [{"label": "cultural group", "identifier": "aat:300387171", "sourceLabel": "ethnic group"}], "map_id": 96, "leaflet_id": 158900}}, {"type": "Feature", "when": {"timespans": [{"end": {"latest": "1950"}, "start": {"earliest": "1900"}}]}, "geometry": {"type": "Polygon", "coordinates": [[[56.337891, 38.728003], [56.56311, 38.706581], [56.618042, 38.646567], [56.414795, 38.620831], [56.337891, 38.728003]]]}, "properties": {"names": [{"toponym": "Khoja (Turkmen tribe)"}], "types": [{"label": "cultural group", "identifier": "aat:300387171", "sourceLabel": "ethnic group"}], "map_id": 96, "leaflet_id": 158925}}, {"type": "Feature", "when": {"timespans": [{"end": {"latest": "1950"}, "start": {"earliest": "1900"}}]}, "geometry": {"type": "Polygon", "coordinates": [[[56.162109, 38.728003], [56.167603, 38.603668], [56.387329, 38.625121], [56.348877, 38.728003], [56.162109, 38.728003]]]}, "properties": {"names": [{"toponym": "Shikh (Turkmen tribe)"}], "types": [{"label": "cultural group", "identifier": "aat:300387171", "sourceLabel": "ethnic group"}], "map_id": 96, "leaflet_id": 158950}}, {"type": "Feature", "when": {"timespans": [{"end": {"latest": "1950"}, "start": {"earliest": "1900"}}]}, "geometry": {"type": "Polygon", "coordinates": [[[56.151123, 38.736753], [56.173096, 38.616725], [56.376343, 38.625305], [56.332397, 38.741036], [56.151123, 38.736753]]]}, "properties": {"names": [{"toponym": "Khoja (Turkmen tribe)"}], "types": [{"label": "cultural group", "identifier": "aat:300387171", "sourceLabel": "ethnic group"}], "map_id": 96, "leaflet_id": 164549}}, {"type": "Feature", "when": {"timespans": [{"end": {"latest": "1950"}, "start": {"earliest": "1900"}}]}, "geometry": {"type": "Polygon", "coordinates": [[[56.343384, 38.736753], [56.524658, 38.715335], [56.601563, 38.689623], [56.596069, 38.629595], [56.403809, 38.621015], [56.343384, 38.736753]]]}, "properties": {"names": [{"toponym": "Shikh (Turkmen tribe)"}], "types": [{"label": "cultural group", "identifier": "aat:300387171", "sourceLabel": "ethnic group"}], "map_id": 96, "leaflet_id": 164576}}, {"type": "Feature", "when": {"timespans": [{"end": {"latest": "1950"}, "start": {"earliest": "1900"}}]}, "geometry": {"type": "Polygon", "coordinates": [[[55.673218, 38.203672], [55.914917, 38.367455], [56.090698, 38.513683], [56.348877, 38.599562], [56.56311, 38.539457], [56.738892, 38.315774], [56.629028, 38.078432], [56.332397, 37.853325], [56.14563, 37.627529], [55.942383, 37.366141], [55.645752, 37.256959], [55.38208, 37.248217], [55.288696, 37.379232], [55.426025, 37.627529], [55.700684, 37.866331], [55.750122, 38.043845], [55.673218, 38.203672]]]}, "properties": {"names": [{"toponym": "Göklen (Turkmen tribe)"}], "types": [{"label": "cultural group", "identifier": "aat:300387171", "sourceLabel": "ethnic group"}], "map_id": 96, "leaflet_id": 164625}}, {"type": "Feature", "when": {"timespans": [{"end": {"latest": "1950"}, "start": {"earliest": "1900"}}]}, "geometry": {"type": "Polygon", "coordinates": [[[57.227783, 38.186579], [57.337646, 38.32025], [57.387085, 38.492365], [57.453003, 38.685505], [57.348633, 38.616892], [57.266235, 38.440774], [57.189331, 38.298707], [57.227783, 38.186579]]]}, "properties": {"names": [{"toponym": "Murchali (Turkmen tribe)"}], "types": [{"label": "cultural group", "identifier": "aat:300387171", "sourceLabel": "ethnic group"}], "map_id": 96, "leaflet_id": 166217}}, {"type": "Feature", "when": {"timespans": [{"end": {"latest": "1950"}, "start": {"earliest": "1900"}}]}, "geometry": {"type": "Polygon", "coordinates": [[[61.00708, 36.848995], [61.094971, 36.980701], [61.133423, 37.081522], [61.00708, 37.063998], [60.891724, 37.00263], [60.853271, 36.928046], [61.00708, 36.848995]]]}, "properties": {"names": [{"toponym": "Khoja (Turkmen tribe)"}], "types": [{"label": "cultural group", "identifier": "aat:300387171", "sourceLabel": "ethnic group"}], "map_id": 96, "leaflet_id": 169555}}, {"type": "Feature", "when": {"timespans": [{"end": {"latest": "1950"}, "start": {"earliest": "1900"}}]}, "geometry": {"type": "Polygon", "coordinates": [[[59.331665, 37.81822], [59.414063, 37.587966], [59.458008, 37.579263], [59.556885, 37.72273], [59.771118, 37.557502], [59.859009, 37.352632], [59.798584, 37.138449], [59.595337, 37.11218], [59.474487, 37.212826], [59.425049, 37.448599], [59.364624, 37.500892], [59.238281, 37.413716], [59.232788, 37.561854], [59.276733, 37.653205], [59.331665, 37.81822]]]}, "properties": {"names": [{"toponym": "Ali-eli (Turkmen tribe)"}], "types": [{"label": "cultural group", "identifier": "aat:300387171", "sourceLabel": "ethnic group"}], "map_id": 96, "leaflet_id": 169600}}, {"type": "Feature", "when": {"timespans": [{"end": {"latest": "1950"}, "start": {"earliest": "1900"}}]}, "geometry": {"type": "Polygon", "coordinates": [[[63.665771, 38.633886], [63.869019, 38.792414], [63.841553, 38.933508], [63.676758, 38.959131], [63.533936, 38.865134], [63.391113, 38.771012], [63.297729, 38.698196], [63.380127, 38.612436], [63.50647, 38.595272], [63.665771, 38.633886]]]}, "properties": {"names": [{"toponym": "Saqar (Turkmen tribe)"}], "types": [{"label": "cultural group", "identifier": "aat:300387171", "sourceLabel": "ethnic group"}], "map_id": 96, "leaflet_id": 173957}}, {"type": "Feature", "when": {"timespans": [{"end": {"latest": "1950"}, "start": {"earliest": "1900"}}]}, "geometry": {"type": "Polygon", "coordinates": [[[62.369385, 34.98561], [62.061768, 35.21921], [61.842041, 35.31784], [61.75415, 35.604078], [61.677246, 36.11141], [61.765137, 36.394802], [61.918945, 36.615486], [61.929932, 37.10753], [62.050781, 37.361091], [62.29248, 37.378547], [62.435303, 37.212555], [62.435303, 37.037432], [62.53418, 36.932164], [62.940674, 36.747594], [63.248291, 36.615486], [63.446045, 36.47432], [63.577881, 36.226662], [63.81958, 35.915982], [64.160156, 35.693318], [64.47876, 35.657634], [64.599609, 35.505798], [64.390869, 35.353675], [64.27002, 35.21921], [64.215088, 35.084522], [62.369385, 34.98561]]]}, "properties": {"names": [{"toponym": "Sarïq (Turkmen tribe)"}], "types": [{"label": "cultural group", "identifier": "aat:300387171", "sourceLabel": "ethnic group"}], "map_id": 96, "leaflet_id": 182748}}, {"type": "Feature", "when": {"timespans": [{"end": {"latest": "1950"}, "start": {"earliest": "1900"}}]}, "geometry": {"type": "Polygon", "coordinates": [[[63.083496, 38.932556], [63.171387, 38.710097], [63.435059, 38.564268], [63.676758, 38.547092], [63.336182, 38.081793], [63.347168, 37.795976], [63.500977, 37.509049], [63.709717, 37.229759], [63.720703, 36.958207], [63.457031, 36.720902], [63.28125, 36.659259], [62.86377, 36.782497], [62.62207, 36.905537], [62.53418, 37.072202], [62.402344, 37.378261], [62.160645, 37.41316], [62.29248, 37.52647], [62.545166, 37.474195], [62.644043, 37.665692], [62.578125, 37.839353], [62.655029, 38.055856], [62.468262, 38.228598], [62.248535, 38.219971], [62.094727, 38.081793], [62.08374, 37.874036], [62.20459, 37.683077], [62.094727, 37.51776], [61.951904, 37.343346], [61.853027, 36.896755], [61.831055, 36.57993], [61.633301, 36.341455], [61.534424, 36.606382], [61.33667, 36.879187], [61.193848, 36.993301], [61.160889, 37.159775], [60.842285, 37.019611], [60.941162, 36.826462], [60.974121, 36.69449], [60.622559, 36.641637], [60.292969, 36.729705], [60.018311, 36.966982], [59.93042, 37.151022], [59.886475, 37.41316], [59.776611, 37.665692], [59.60083, 37.787298], [59.490967, 37.700457], [59.293213, 37.891372], [59.194336, 37.52647], [58.85376, 37.613514], [58.535156, 37.604815], [58.348389, 37.622213], [58.051758, 37.735205], [57.974854, 37.917367], [57.755127, 37.995299], [57.469482, 37.977988], [57.359619, 38.168185], [57.414551, 38.31506], [57.513428, 38.581683], [57.513428, 38.770301], [57.293701, 38.658905], [57.249756, 38.504378], [56.744385, 38.573098], [56.66748, 38.718909], [56.282959, 38.804542], [56.063232, 38.984036], [56.030273, 39.120489], [56.271973, 39.485899], [56.480713, 39.705917], [56.766357, 39.874687], [56.854248, 40.110268], [56.975098, 40.370141], [57.260742, 40.403601], [57.502441, 40.328294], [57.897949, 40.227754], [58.238525, 40.28642], [58.568115, 40.336665], [58.875732, 40.244521], [59.007568, 40.085066], [58.996582, 39.756592], [58.974609, 39.426543], [59.084473, 39.001107], [59.27124, 38.658905], [59.425049, 38.340905], [59.622803, 38.177063], [59.897461, 38.107967], [60.13916, 38.107967], [60.402832, 38.237469], [60.67749, 38.297825], [60.908203, 38.16843], [61.116943, 38.047453], [61.292725, 38.064748], [61.622314, 38.340905], [61.885986, 38.590268], [62.215576, 38.778863], [62.523193, 38.881524], [62.808838, 38.890072], [63.083496, 38.932556]]]}, "properties": {"names": [{"toponym": "Teke (Turkmen tribe)"}], "types": [{"label": "cultural group", "identifier": "aat:300387171", "sourceLabel": "ethnic group"}], "map_id": 96, "leaflet_id": 184817}}, {"type": "Feature", "when": {"timespans": [{"end": {"latest": "1950"}, "start": {"earliest": "1900"}}]}, "geometry": {"type": "Polygon", "coordinates": [[[52.822266, 40.67183], [52.695923, 40.596823], [52.646484, 40.500859], [52.602539, 40.396395], [52.937622, 40.383848], [52.970581, 40.500859], [53.069458, 40.567632], [52.822266, 40.67183]]]}, "properties": {"names": [{"toponym": "Khoja (Turkmen tribe)"}], "types": [{"label": "cultural group", "identifier": "aat:300387171", "sourceLabel": "ethnic group"}], "map_id": 96, "leaflet_id": 191556}}, {"type": "Feature", "when": {"timespans": [{"end": {"latest": "1950"}, "start": {"earliest": "1900"}}]}, "geometry": {"type": "Polygon", "coordinates": [[[52.646484, 40.023184], [52.728882, 39.947454], [52.860718, 39.993743], [52.646484, 40.023184]]]}, "properties": {"names": [{"toponym": "Shikh (Turkmen tribe)"}], "types": [{"label": "cultural group", "identifier": "aat:300387171", "sourceLabel": "ethnic group"}], "map_id": 96, "leaflet_id": 191583}}, {"type": "Feature", "when": {"timespans": [{"end": {"latest": "1950"}, "start": {"earliest": "1900"}}]}, "geometry": {"type": "Polygon", "coordinates": [[[52.734375, 39.926402], [52.877197, 39.85478], [52.871704, 39.989536], [52.734375, 39.926402]]]}, "properties": {"names": [{"toponym": "Khoja (Turkmen tribe)"}], "types": [{"label": "cultural group", "identifier": "aat:300387171", "sourceLabel": "ethnic group"}], "map_id": 96, "leaflet_id": 191606}}]}
