{"type" : "FeatureCollection", "name" : "bregel_39", "source" : "lpdraw DB (read-only snapshot, 2026-08-29)", "features" : [{"type": "Feature", "when": {"timespans": [{"end": {"latest": "2000"}, "start": {"earliest": "1900"}}]}, "geometry": {"type": "LineString", "coordinates": [[71.466064, 42.227032], [71.531982, 42.389617], [71.586914, 42.515332], [71.658325, 42.596304]]}, "properties": {"names": [{"toponym": "Bagïsh (Qïrghïz tribe)"}], "types": [{"label": "cultural group", "identifier": "aat:300387171", "sourceLabel": "ethnic group"}], "map_id": 98, "leaflet_id": 16482}}, {"type": "Feature", "when": {"timespans": [{"end": {"latest": "2000"}, "start": {"earliest": "1900"}}]}, "geometry": {"type": "LineString", "coordinates": [[70.740967, 41.383076], [70.916748, 41.465501], [71.070557, 41.51079], [71.185913, 41.539593]]}, "properties": {"names": [{"toponym": "Bagïsh (Qïrghïz tribe)"}], "types": [{"label": "cultural group", "identifier": "aat:300387171", "sourceLabel": "ethnic group"}], "map_id": 98, "leaflet_id": 16508}}, {"type": "Feature", "when": {"timespans": [{"end": {"latest": "2000"}, "start": {"earliest": "1900"}}]}, "geometry": {"type": "LineString", "coordinates": [[71.466064, 41.621819], [71.592407, 41.519021], [71.729736, 41.440784], [71.850586, 41.358328]]}, "properties": {"names": [{"toponym": "Bagïsh (Qïrghïz tribe)"}], "types": [{"label": "cultural group", "identifier": "aat:300387171", "sourceLabel": "ethnic group"}], "map_id": 98, "leaflet_id": 16534}}, {"type": "Feature", "when": {"timespans": [{"end": {"latest": "2000"}, "start": {"earliest": "1900"}}]}, "geometry": {"type": "LineString", "coordinates": [[70.598145, 41.242714], [70.834351, 41.259243], [71.010132, 41.259243], [71.235352, 41.263375], [71.427612, 41.288159]]}, "properties": {"names": [{"toponym": "Mongoldor (Qïrghïz tribe)"}], "types": [{"label": "cultural group", "identifier": "aat:300387171", "sourceLabel": "ethnic group"}], "map_id": 98, "leaflet_id": 16561}}, {"type": "Feature", "when": {"timespans": [{"end": {"latest": "2000"}, "start": {"earliest": "1900"}}]}, "geometry": {"type": "LineString", "coordinates": [[72.020874, 41.708043], [72.191162, 41.671104], [72.36145, 41.634144], [72.4823, 41.625927]]}, "properties": {"names": [{"toponym": "Azïq (Qïrghïz tribe)"}], "types": [{"label": "cultural group", "identifier": "aat:300387171", "sourceLabel": "ethnic group"}], "map_id": 98, "leaflet_id": 16587}}, {"type": "Feature", "when": {"timespans": [{"end": {"latest": "2000"}, "start": {"earliest": "1900"}}]}, "geometry": {"type": "LineString", "coordinates": [[72.339478, 42.112973], [72.515259, 42.088505], [72.674561, 42.068107], [72.817383, 42.02321]]}, "properties": {"names": [{"toponym": "Bagïsh (Qïrghïz tribe)"}], "types": [{"label": "cultural group", "identifier": "aat:300387171", "sourceLabel": "ethnic group"}], "map_id": 98, "leaflet_id": 16613}}, {"type": "Feature", "when": {"timespans": [{"end": {"latest": "2000"}, "start": {"earliest": "1900"}}]}, "geometry": {"type": "LineString", "coordinates": [[72.581177, 41.576608], [72.817383, 41.642359], [72.976685, 41.630036], [73.119507, 41.58483], [73.284302, 41.523136]]}, "properties": {"names": [{"toponym": "Sarï-Bagïsh (Qïrghïz tribe)"}], "types": [{"label": "cultural group", "identifier": "aat:300387171", "sourceLabel": "ethnic group"}], "map_id": 98, "leaflet_id": 16640}}, {"type": "Feature", "when": {"timespans": [{"end": {"latest": "2000"}, "start": {"earliest": "1900"}}]}, "geometry": {"type": "LineString", "coordinates": [[72.729492, 41.77366], [72.855835, 41.876053], [72.987671, 41.974196], [73.097534, 42.055866]]}, "properties": {"names": [{"toponym": "Bagïsh (Qïrghïz tribe)"}], "types": [{"label": "cultural group", "identifier": "aat:300387171", "sourceLabel": "ethnic group"}], "map_id": 98, "leaflet_id": 16665}}, {"type": "Feature", "when": {"timespans": [{"end": {"latest": "2000"}, "start": {"earliest": "1900"}}]}, "geometry": {"type": "LineString", "coordinates": [[72.114258, 41.060621], [72.25708, 41.147593], [72.322998, 41.246847], [72.37793, 41.317061], [72.531738, 41.350077], [72.663574, 41.3872]]}, "properties": {"names": [{"toponym": "Zhediger (Qïrghïz tribe)"}], "types": [{"label": "cultural group", "identifier": "aat:300387171", "sourceLabel": "ethnic group"}], "map_id": 98, "leaflet_id": 16694}}, {"type": "Feature", "when": {"timespans": [{"end": {"latest": "2000"}, "start": {"earliest": "1900"}}]}, "geometry": {"type": "LineString", "coordinates": [[72.729492, 41.424302], [72.949219, 41.424302], [73.108521, 41.444904], [73.207397, 41.465501]]}, "properties": {"names": [{"toponym": "Sayaq (Qïrghïz tribe)"}], "types": [{"label": "cultural group", "identifier": "aat:300387171", "sourceLabel": "ethnic group"}], "map_id": 98, "leaflet_id": 16719}}, {"type": "Feature", "when": {"timespans": [{"end": {"latest": "2000"}, "start": {"earliest": "1900"}}]}, "geometry": {"type": "LineString", "coordinates": [[73.064575, 41.908784], [73.179932, 41.785956], [73.317261, 41.679315], [73.432617, 41.601272], [73.55896, 41.481973], [73.707275, 41.370703]]}, "properties": {"names": [{"toponym": "Sayaq (Qïrghïz tribe)"}], "types": [{"label": "cultural group", "identifier": "aat:300387171", "sourceLabel": "ethnic group"}], "map_id": 98, "leaflet_id": 16748}}, {"type": "Feature", "when": {"timespans": [{"end": {"latest": "2000"}, "start": {"earliest": "1900"}}]}, "geometry": {"type": "LineString", "coordinates": [[73.372192, 41.761362], [73.520508, 41.716249], [73.701782, 41.630036], [73.773193, 41.539593], [73.87207, 41.42018], [73.916016, 41.333571]]}, "properties": {"names": [{"toponym": "Mongoldor (Qïrghïz tribe)"}], "types": [{"label": "cultural group", "identifier": "aat:300387171", "sourceLabel": "ethnic group"}], "map_id": 98, "leaflet_id": 16777}}, {"type": "Feature", "when": {"timespans": [{"end": {"latest": "2000"}, "start": {"earliest": "1900"}}]}, "geometry": {"type": "LineString", "coordinates": [[73.97644, 41.642359], [74.146729, 41.547821], [74.366455, 41.477855]]}, "properties": {"names": [{"toponym": "Sayaq (Qïrghïz tribe)"}], "types": [{"label": "cultural group", "identifier": "aat:300387171", "sourceLabel": "ethnic group"}], "map_id": 98, "leaflet_id": 16801}}, {"type": "Feature", "when": {"timespans": [{"end": {"latest": "2000"}, "start": {"earliest": "1900"}}]}, "geometry": {"type": "LineString", "coordinates": [[73.185425, 42.125203], [73.586426, 42.170028], [73.954468, 42.178175], [74.300537, 42.153732], [74.613647, 42.125203], [74.718018, 42.10074]]}, "properties": {"names": [{"toponym": "Chekir-Sayaq (Qïrghïz tribe)"}], "types": [{"label": "cultural group", "identifier": "aat:300387171", "sourceLabel": "ethnic group"}], "map_id": 98, "leaflet_id": 16830}}, {"type": "Feature", "when": {"timespans": [{"end": {"latest": "2000"}, "start": {"earliest": "1900"}}]}, "geometry": {"type": "LineString", "coordinates": [[74.058838, 41.990414], [74.21814, 41.888204], [74.382935, 41.86365], [74.553223, 41.802222], [74.690552, 41.744836], [74.84436, 41.679189], [75.036621, 41.654555], [75.239868, 41.634019], [75.443115, 41.621694]]}, "properties": {"names": [{"toponym": "Chekir-Sayaq (Qïrghïz tribe)"}], "types": [{"label": "cultural group", "identifier": "aat:300387171", "sourceLabel": "ethnic group"}], "map_id": 98, "leaflet_id": 17216}}, {"type": "Feature", "when": {"timespans": [{"end": {"latest": "2000"}, "start": {"earliest": "1900"}}]}, "geometry": {"type": "LineString", "coordinates": [[74.223633, 41.205383], [74.360962, 41.180568], [74.476318, 41.135049], [74.608154, 41.101924], [74.75647, 41.060495], [74.833374, 40.998302], [75.014648, 41.010745], [75.212402, 41.048061], [75.311279, 41.093641]]}, "properties": {"names": [{"toponym": "Chekir-Sayaq (Qïrghïz tribe)"}], "types": [{"label": "cultural group", "identifier": "aat:300387171", "sourceLabel": "ethnic group"}], "map_id": 98, "leaflet_id": 17252}}, {"type": "Feature", "when": {"timespans": [{"end": {"latest": "2000"}, "start": {"earliest": "1900"}}]}, "geometry": {"type": "LineString", "coordinates": [[73.339233, 42.668966], [73.630371, 42.62854], [73.937988, 42.632584], [74.20166, 42.624496]]}, "properties": {"names": [{"toponym": "Solto (Qïrghïz tribe)"}], "types": [{"label": "cultural group", "identifier": "aat:300387171", "sourceLabel": "ethnic group"}], "map_id": 98, "leaflet_id": 17277}}, {"type": "Feature", "when": {"timespans": [{"end": {"latest": "2000"}, "start": {"earliest": "1900"}}]}, "geometry": {"type": "LineString", "coordinates": [[73.531494, 42.947187], [73.927002, 43.003485], [74.328003, 43.083822]]}, "properties": {"names": [{"toponym": "Solto (Qïrghïz tribe)"}], "types": [{"label": "cultural group", "identifier": "aat:300387171", "sourceLabel": "ethnic group"}], "map_id": 98, "leaflet_id": 17300}}, {"type": "Feature", "when": {"timespans": [{"end": {"latest": "2000"}, "start": {"earliest": "1900"}}]}, "geometry": {"type": "LineString", "coordinates": [[74.73999, 42.385236], [74.899292, 42.527163], [74.96521, 42.628343], [74.96521, 42.785855], [75.047607, 42.898695]]}, "properties": {"names": [{"toponym": "Suu-Murun (Qïrghïz tribe)"}], "types": [{"label": "cultural group", "identifier": "aat:300387171", "sourceLabel": "ethnic group"}], "map_id": 98, "leaflet_id": 17327}}, {"type": "Feature", "when": {"timespans": [{"end": {"latest": "2000"}, "start": {"earliest": "1900"}}]}, "geometry": {"type": "LineString", "coordinates": [[74.124756, 42.356812], [74.300537, 42.482592], [74.498291, 42.620255], [74.553223, 42.668769]]}, "properties": {"names": [{"toponym": "Solto (Qïrghïz tribe)"}], "types": [{"label": "cultural group", "identifier": "aat:300387171", "sourceLabel": "ethnic group"}], "map_id": 98, "leaflet_id": 17352}}, {"type": "Feature", "when": {"timespans": [{"end": {"latest": "2000"}, "start": {"earliest": "1900"}}]}, "geometry": {"type": "LineString", "coordinates": [[76.036377, 42.492816], [76.387939, 42.590005], [76.860352, 42.646629]]}, "properties": {"names": [{"toponym": "Sayaq (Qïrghïz tribe)"}], "types": [{"label": "cultural group", "identifier": "aat:300387171", "sourceLabel": "ethnic group"}], "map_id": 98, "leaflet_id": 17565}}, {"type": "Feature", "when": {"timespans": [{"end": {"latest": "2000"}, "start": {"earliest": "1900"}}]}, "geometry": {"type": "LineString", "coordinates": [[75.267334, 42.322371], [75.476074, 42.192198], [75.706787, 42.061756], [75.926514, 41.939222], [76.376953, 41.914687]]}, "properties": {"names": [{"toponym": "Sarï-Bagïsh (Qïrghïz tribe)"}], "types": [{"label": "cultural group", "identifier": "aat:300387171", "sourceLabel": "ethnic group"}], "map_id": 98, "leaflet_id": 17592}}, {"type": "Feature", "when": {"timespans": [{"end": {"latest": "2000"}, "start": {"earliest": "1900"}}]}, "geometry": {"type": "LineString", "coordinates": [[76.113281, 42.022812], [76.272583, 42.14926], [76.481323, 42.255118]]}, "properties": {"names": [{"toponym": "Bugu (Qïrghïz tribe)"}], "types": [{"label": "cultural group", "identifier": "aat:300387171", "sourceLabel": "ethnic group"}], "map_id": 98, "leaflet_id": 17838}}, {"type": "Feature", "when": {"timespans": [{"end": {"latest": "2000"}, "start": {"earliest": "1900"}}]}, "geometry": {"type": "LineString", "coordinates": [[76.360474, 41.99014], [76.514282, 42.100342], [76.777954, 42.214424]]}, "properties": {"names": [{"toponym": "Sayaq (Qïrghïz tribe)"}], "types": [{"label": "cultural group", "identifier": "aat:300387171", "sourceLabel": "ethnic group"}], "map_id": 98, "leaflet_id": 17861}}, {"type": "Feature", "when": {"timespans": [{"end": {"latest": "2000"}, "start": {"earliest": "1900"}}]}, "geometry": {"type": "LineString", "coordinates": [[75.783691, 41.386798], [76.025391, 41.3538], [76.256104, 41.357926], [76.376953, 41.357926], [76.530762, 41.370301], [76.766968, 41.428021]]}, "properties": {"names": [{"toponym": "Mongoldor (Qïrghïz tribe)"}], "types": [{"label": "cultural group", "identifier": "aat:300387171", "sourceLabel": "ethnic group"}], "map_id": 98, "leaflet_id": 17933}}, {"type": "Feature", "when": {"timespans": [{"end": {"latest": "2000"}, "start": {"earliest": "1900"}}]}, "geometry": {"type": "LineString", "coordinates": [[75.50354, 41.82243], [75.717773, 41.756862], [75.888062, 41.711746], [76.052856, 41.658386], [76.239624, 41.600871], [76.338501, 41.58854]]}, "properties": {"names": [{"toponym": "Tïnïmseyit (Qïrghïz tribe)"}], "types": [{"label": "cultural group", "identifier": "aat:300387171", "sourceLabel": "ethnic group"}], "map_id": 98, "leaflet_id": 17962}}, {"type": "Feature", "when": {"timespans": [{"end": {"latest": "2000"}, "start": {"earliest": "1900"}}]}, "geometry": {"type": "LineString", "coordinates": [[76.607666, 41.857352], [76.92627, 41.75903], [77.2229, 41.767229], [77.508545, 41.791821]]}, "properties": {"names": [{"toponym": "Tïnïmseyit (Qïrghïz tribe)"}], "types": [{"label": "cultural group", "identifier": "aat:300387171", "sourceLabel": "ethnic group"}], "map_id": 98, "leaflet_id": 18188}}, {"type": "Feature", "when": {"timespans": [{"end": {"latest": "2000"}, "start": {"earliest": "1900"}}]}, "geometry": {"type": "LineString", "coordinates": [[76.92627, 41.873725], [77.453613, 41.963698], [78.21167, 42.167711], [78.837891, 42.41166]]}, "properties": {"names": [{"toponym": "Bugu (Qïrghïz tribe)"}], "types": [{"label": "cultural group", "identifier": "aat:300387171", "sourceLabel": "ethnic group"}], "map_id": 98, "leaflet_id": 18213}}, {"type": "Feature", "when": {"timespans": [{"end": {"latest": "2000"}, "start": {"earliest": "1900"}}]}, "geometry": {"type": "LineString", "coordinates": [[79.464111, 41.528897], [79.903564, 41.504204], [80.299072, 41.561805]]}, "properties": {"names": [{"toponym": "Cherik (Qïrghïz tribe)"}], "types": [{"label": "cultural group", "identifier": "aat:300387171", "sourceLabel": "ethnic group"}], "map_id": 98, "leaflet_id": 18694}}, {"type": "Feature", "when": {"timespans": [{"end": {"latest": "2000"}, "start": {"earliest": "1900"}}]}, "geometry": {"type": "LineString", "coordinates": [[77.893066, 40.950293], [78.431396, 41.165801], [78.969727, 41.413586]]}, "properties": {"names": [{"toponym": "Cherik (Qïrghïz tribe)"}], "types": [{"label": "cultural group", "identifier": "aat:300387171", "sourceLabel": "ethnic group"}], "map_id": 98, "leaflet_id": 18717}}, {"type": "Feature", "when": {"timespans": [{"end": {"latest": "2000"}, "start": {"earliest": "1900"}}]}, "geometry": {"type": "LineString", "coordinates": [[76.92627, 40.908768], [77.211914, 40.94199], [77.409668, 40.90046]]}, "properties": {"names": [{"toponym": "Cherik (Qïrghïz tribe)"}], "types": [{"label": "cultural group", "identifier": "aat:300387171", "sourceLabel": "ethnic group"}], "map_id": 98, "leaflet_id": 18740}}, {"type": "Feature", "when": {"timespans": [{"end": {"latest": "2000"}, "start": {"earliest": "1900"}}]}, "geometry": {"type": "LineString", "coordinates": [[75.62439, 40.940285], [75.997925, 41.089581], [76.437378, 41.176514], [76.887817, 41.197195]]}, "properties": {"names": [{"toponym": "Cherik (Qïrghïz tribe)"}], "types": [{"label": "cultural group", "identifier": "aat:300387171", "sourceLabel": "ethnic group"}], "map_id": 98, "leaflet_id": 18965}}, {"type": "Feature", "when": {"timespans": [{"end": {"latest": "2000"}, "start": {"earliest": "1900"}}]}, "geometry": {"type": "LineString", "coordinates": [[75.932007, 40.724039], [76.206665, 40.848883], [76.420898, 40.877979]]}, "properties": {"names": [{"toponym": "Cherik (Qïrghïz tribe)"}], "types": [{"label": "cultural group", "identifier": "aat:300387171", "sourceLabel": "ethnic group"}], "map_id": 98, "leaflet_id": 18988}}, {"type": "Feature", "when": {"timespans": [{"end": {"latest": "2000"}, "start": {"earliest": "1900"}}]}, "geometry": {"type": "LineString", "coordinates": [[75.942993, 40.594788], [76.322021, 40.699042], [76.640625, 40.807294]]}, "properties": {"names": [{"toponym": "Tïnïmseyit (Qïrghïz tribe)"}], "types": [{"label": "cultural group", "identifier": "aat:300387171", "sourceLabel": "ethnic group"}], "map_id": 98, "leaflet_id": 19011}}, {"type": "Feature", "when": {"timespans": [{"end": {"latest": "2000"}, "start": {"earliest": "1900"}}]}, "geometry": {"type": "LineString", "coordinates": [[74.459839, 40.653907], [74.783936, 40.57046], [75.097046, 40.566285]]}, "properties": {"names": [{"toponym": "Cherik (Qïrghïz tribe)"}], "types": [{"label": "cultural group", "identifier": "aat:300387171", "sourceLabel": "ethnic group"}], "map_id": 98, "leaflet_id": 19757}}, {"fid": 568, "type": "Feature", "when": {"timespans": [{"end": {"latest": "2000"}, "start": {"earliest": "1900"}}]}, "geometry": {"type": "LineString", "coordinates": [[77.865601, 36.920948], [78.05078, 36.96354], [78.264606, 36.95219], [78.396699, 36.905465], [78.54141, 36.810676]]}, "properties": {"names": [{"toponym": "Boston (Qïrghïz tribe)"}], "types": [{"label": "cultural group", "identifier": "aat:300387171", "sourceLabel": "ethnic group"}], "map_id": 98, "leaflet_id": 20547}}, {"type": "Feature", "when": {"timespans": [{"end": {"latest": "2000"}, "start": {"earliest": "1900"}}]}, "geometry": {"type": "LineString", "coordinates": [[77.162476, 37.372188], [77.415161, 37.206025], [77.492065, 37.078969], [77.601929, 36.881392]]}, "properties": {"names": [{"toponym": "Nayman (Qïrghïz tribe)"}], "types": [{"label": "cultural group", "identifier": "aat:300387171", "sourceLabel": "ethnic group"}], "map_id": 98, "leaflet_id": 20572}}, {"fid": 570, "type": "Feature", "when": {"timespans": [{"end": {"latest": "2000"}, "start": {"earliest": "1900"}}]}, "geometry": {"type": "LineString", "coordinates": [[76.398926, 37.876137], [76.717079, 37.765609], [76.901937, 37.594291], [76.912537, 37.368985]]}, "properties": {"names": [{"toponym": "Nayman (Qïrghïz tribe)"}], "types": [{"label": "cultural group", "identifier": "aat:300387171", "sourceLabel": "ethnic group"}], "map_id": 98, "leaflet_id": 20830}}, {"type": "Feature", "when": {"timespans": [{"end": {"latest": "2000"}, "start": {"earliest": "1900"}}]}, "geometry": {"type": "LineString", "coordinates": [[75.621643, 39.086843], [75.800171, 38.958744], [75.984192, 38.845396], [76.118774, 38.764017]]}, "properties": {"names": [{"toponym": "Nayman (Qïrghïz tribe)"}], "types": [{"label": "cultural group", "identifier": "aat:300387171", "sourceLabel": "ethnic group"}], "map_id": 98, "leaflet_id": 21446}}, {"type": "Feature", "when": {"timespans": [{"end": {"latest": "2000"}, "start": {"earliest": "1900"}}]}, "geometry": {"type": "LineString", "coordinates": [[76.225891, 38.560127], [76.313782, 38.381547], [76.385193, 38.237071], [76.440125, 38.113931]]}, "properties": {"names": [{"toponym": "Nayman (Qïrghïz tribe)"}], "types": [{"label": "cultural group", "identifier": "aat:300387171", "sourceLabel": "ethnic group"}], "map_id": 98, "leaflet_id": 21471}}, {"type": "Feature", "when": {"timespans": [{"end": {"latest": "2000"}, "start": {"earliest": "1900"}}]}, "geometry": {"type": "LineString", "coordinates": [[75.62439, 38.669637], [75.811157, 38.635299], [75.964966, 38.605239], [76.069336, 38.588057]]}, "properties": {"names": [{"toponym": "Teyit (Qïrghïz tribe)"}], "types": [{"label": "cultural group", "identifier": "aat:300387171", "sourceLabel": "ethnic group"}], "map_id": 98, "leaflet_id": 21496}}, {"type": "Feature", "when": {"timespans": [{"end": {"latest": "2000"}, "start": {"earliest": "1900"}}]}, "geometry": {"type": "LineString", "coordinates": [[74.937744, 38.362157], [75.151978, 38.284542], [75.305786, 38.148518], [75.456848, 37.968922]]}, "properties": {"names": [{"toponym": "Nayman (Qïrghïz tribe)"}], "types": [{"label": "cultural group", "identifier": "aat:300387171", "sourceLabel": "ethnic group"}], "map_id": 98, "leaflet_id": 21548}}, {"type": "Feature", "when": {"timespans": [{"end": {"latest": "2000"}, "start": {"earliest": "1900"}}]}, "geometry": {"type": "LineString", "coordinates": [[75.915527, 38.394574], [76.124268, 38.250123], [76.269836, 38.131329]]}, "properties": {"names": [{"toponym": "Kesek (Qïrghïz tribe)"}], "types": [{"label": "cultural group", "identifier": "aat:300387171", "sourceLabel": "ethnic group"}], "map_id": 98, "leaflet_id": 21954}}, {"type": "Feature", "when": {"timespans": [{"end": {"latest": "2000"}, "start": {"earliest": "1900"}}]}, "geometry": {"type": "LineString", "coordinates": [[73.696289, 38.844324], [74.025879, 38.895674], [74.289551, 38.852885], [74.476318, 38.750085]]}, "properties": {"names": [{"toponym": "Nayman (Qïrghïz tribe)"}], "types": [{"label": "cultural group", "identifier": "aat:300387171", "sourceLabel": "ethnic group"}], "map_id": 98, "leaflet_id": 22623}}, {"type": "Feature", "when": {"timespans": [{"end": {"latest": "2000"}, "start": {"earliest": "1900"}}]}, "geometry": {"type": "LineString", "coordinates": [[71.224365, 39.568321], [72.026367, 39.636078], [73.037109, 39.754492]]}, "properties": {"names": [{"toponym": "Teyit (Qïrghïz tribe)"}], "types": [{"label": "cultural group", "identifier": "aat:300387171", "sourceLabel": "ethnic group"}], "map_id": 98, "leaflet_id": 22665}}, {"type": "Feature", "when": {"timespans": [{"end": {"latest": "2000"}, "start": {"earliest": "1900"}}]}, "geometry": {"type": "LineString", "coordinates": [[71.960449, 39.415627], [72.685547, 39.500499], [73.322754, 39.52594]]}, "properties": {"names": [{"toponym": "Nayman (Qïrghïz tribe)"}], "types": [{"label": "cultural group", "identifier": "aat:300387171", "sourceLabel": "ethnic group"}], "map_id": 98, "leaflet_id": 22688}}, {"type": "Feature", "when": {"timespans": [{"end": {"latest": "2000"}, "start": {"earliest": "1900"}}]}, "geometry": {"type": "LineString", "coordinates": [[70.603638, 39.481057], [70.911255, 39.671693], [71.152954, 39.785822]]}, "properties": {"names": [{"toponym": "Noygut"}], "types": [{"label": "cultural group", "identifier": "aat:300387171", "sourceLabel": "ethnic group"}], "map_id": 98, "leaflet_id": 24123}}, {"type": "Feature", "when": {"timespans": [{"end": {"latest": "2000"}, "start": {"earliest": "1900"}}]}, "geometry": {"type": "LineString", "coordinates": [[69.933472, 39.692842], [70.317993, 39.726668], [70.554199, 39.705529]]}, "properties": {"names": [{"toponym": "Avat (Qïrghïz tribe)"}], "types": [{"label": "cultural group", "identifier": "aat:300387171", "sourceLabel": "ethnic group"}], "map_id": 98, "leaflet_id": 24159}}, {"type": "Feature", "when": {"timespans": [{"end": {"latest": "2000"}, "start": {"earliest": "1900"}}]}, "geometry": {"type": "LineString", "coordinates": [[71.669312, 39.713985], [71.949463, 39.828045], [72.224121, 39.916627]]}, "properties": {"names": [{"toponym": "Nayman (Qïrghïz tribe)"}], "types": [{"label": "cultural group", "identifier": "aat:300387171", "sourceLabel": "ethnic group"}], "map_id": 98, "leaflet_id": 24185}}, {"type": "Feature", "when": {"timespans": [{"end": {"latest": "2000"}, "start": {"earliest": "1900"}}]}, "geometry": {"type": "LineString", "coordinates": [[71.685791, 39.853365], [71.998901, 39.975618], [72.185669, 40.042974]]}, "properties": {"names": [{"toponym": "Töölös (Qïrghïz tribe)"}], "types": [{"label": "cultural group", "identifier": "aat:300387171", "sourceLabel": "ethnic group"}], "map_id": 98, "leaflet_id": 24208}}, {"type": "Feature", "when": {"timespans": [{"end": {"latest": "2000"}, "start": {"earliest": "1900"}}]}, "geometry": {"type": "LineString", "coordinates": [[72.333984, 40.403875], [72.416382, 40.148085], [72.454834, 39.937701]]}, "properties": {"names": [{"toponym": "Töölös (Qïrghïz tribe)"}], "types": [{"label": "cultural group", "identifier": "aat:300387171", "sourceLabel": "ethnic group"}], "map_id": 98, "leaflet_id": 24231}}, {"type": "Feature", "when": {"timespans": [{"end": {"latest": "2000"}, "start": {"earliest": "1900"}}]}, "geometry": {"type": "LineString", "coordinates": [[71.40564, 39.730864], [71.71875, 39.954525], [71.921997, 40.110234]]}, "properties": {"names": [{"toponym": "Nayman (Qïrghïz tribe)"}], "types": [{"label": "cultural group", "identifier": "aat:300387171", "sourceLabel": "ethnic group"}], "map_id": 98, "leaflet_id": 24254}}, {"type": "Feature", "when": {"timespans": [{"end": {"latest": "2000"}, "start": {"earliest": "1900"}}]}, "geometry": {"type": "LineString", "coordinates": [[71.515503, 39.920812], [71.680298, 40.127046], [71.878052, 40.269781]]}, "properties": {"names": [{"toponym": "Qangdï (Qïrghïz tribe)"}], "types": [{"label": "cultural group", "identifier": "aat:300387171", "sourceLabel": "ethnic group"}], "map_id": 98, "leaflet_id": 24277}}, {"type": "Feature", "when": {"timespans": [{"end": {"latest": "2000"}, "start": {"earliest": "1900"}}]}, "geometry": {"type": "LineString", "coordinates": [[71.18042, 40.194215], [71.350708, 40.219401], [71.449585, 40.148018], [71.444092, 40.009237]]}, "properties": {"names": [{"toponym": "Zhoo-Kesek (Qïrghïz tribe)"}], "types": [{"label": "cultural group", "identifier": "aat:300387171", "sourceLabel": "ethnic group"}], "map_id": 98, "leaflet_id": 24347}}, {"type": "Feature", "when": {"timespans": [{"end": {"latest": "2000"}, "start": {"earliest": "1900"}}]}, "geometry": {"type": "LineString", "coordinates": [[70.944214, 40.294901], [71.119995, 40.072354], [71.312256, 39.840638]]}, "properties": {"names": [{"toponym": "Boston (Qïrghïz tribe)"}], "types": [{"label": "cultural group", "identifier": "aat:300387171", "sourceLabel": "ethnic group"}], "map_id": 98, "leaflet_id": 24370}}, {"type": "Feature", "when": {"timespans": [{"end": {"latest": "2000"}, "start": {"earliest": "1900"}}]}, "geometry": {"type": "LineString", "coordinates": [[70.543213, 39.912343], [70.834351, 39.912343], [71.092529, 39.937633]]}, "properties": {"names": [{"toponym": "Qïpchaq (Qïrghiz tribe)"}], "types": [{"label": "cultural group", "identifier": "aat:300387171", "sourceLabel": "ethnic group"}], "map_id": 98, "leaflet_id": 24395}}, {"type": "Feature", "when": {"timespans": [{"end": {"latest": "2000"}, "start": {"earliest": "1900"}}]}, "geometry": {"type": "LineString", "coordinates": [[70.279541, 40.097585], [70.499268, 39.802646]]}, "properties": {"names": [{"toponym": "Avat (Qïrghïz tribe)"}], "types": [{"label": "cultural group", "identifier": "aat:300387171", "sourceLabel": "ethnic group"}], "map_id": 98, "leaflet_id": 24416}}, {"type": "Feature", "when": {"timespans": [{"end": {"latest": "2000"}, "start": {"earliest": "1900"}}]}, "geometry": {"type": "LineString", "coordinates": [[69.082031, 39.616433], [69.455566, 39.705287], [69.719238, 39.751785]]}, "properties": {"names": [{"toponym": "Kesek (Qïrghïz tribe)"}], "types": [{"label": "cultural group", "identifier": "aat:300387171", "sourceLabel": "ethnic group"}], "map_id": 98, "leaflet_id": 24803}}, {"type": "Feature", "when": {"timespans": [{"end": {"latest": "2000"}, "start": {"earliest": "1900"}}]}, "geometry": {"type": "LineString", "coordinates": [[69.675293, 40.319877], [69.99939, 40.084798], [70.296021, 39.865782]]}, "properties": {"names": [{"toponym": "Nayman (Qïrghïz tribe)"}], "types": [{"label": "cultural group", "identifier": "aat:300387171", "sourceLabel": "ethnic group"}], "map_id": 98, "leaflet_id": 24827}}, {"type": "Feature", "when": {"timespans": [{"end": {"latest": "2000"}, "start": {"earliest": "1900"}}]}, "geometry": {"type": "LineString", "coordinates": [[69.318237, 40.110024], [69.603882, 40.004854], [69.829102, 39.903738]]}, "properties": {"names": [{"toponym": "Teyit (Qïrghïz tribe)"}], "types": [{"label": "cultural group", "identifier": "aat:300387171", "sourceLabel": "ethnic group"}], "map_id": 98, "leaflet_id": 24850}}, {"type": "Feature", "when": {"timespans": [{"end": {"latest": "2000"}, "start": {"earliest": "1900"}}]}, "geometry": {"type": "LineString", "coordinates": [[73.366699, 39.764226], [73.745728, 39.85711]]}, "properties": {"names": [{"toponym": "Avat (Qïrghïz tribe)"}], "types": [{"label": "cultural group", "identifier": "aat:300387171", "sourceLabel": "ethnic group"}], "map_id": 98, "leaflet_id": 25276}}, {"type": "Feature", "when": {"timespans": [{"end": {"latest": "2000"}, "start": {"earliest": "1900"}}]}, "geometry": {"type": "LineString", "coordinates": [[73.591919, 39.561135], [73.916016, 39.692366]]}, "properties": {"names": [{"toponym": "Avat (Qïrghïz tribe)"}], "types": [{"label": "cultural group", "identifier": "aat:300387171", "sourceLabel": "ethnic group"}], "map_id": 98, "leaflet_id": 25297}}, {"type": "Feature", "when": {"timespans": [{"end": {"latest": "2000"}, "start": {"earliest": "1900"}}]}, "geometry": {"type": "LineString", "coordinates": [[75.283813, 39.229819], [75.701294, 39.459345], [76.085815, 39.658503]]}, "properties": {"names": [{"toponym": "Qïpchaq (Qïrghiz tribe)"}], "types": [{"label": "cultural group", "identifier": "aat:300387171", "sourceLabel": "ethnic group"}], "map_id": 98, "leaflet_id": 25722}}, {"type": "Feature", "when": {"timespans": [{"end": {"latest": "2000"}, "start": {"earliest": "1900"}}]}, "geometry": {"type": "LineString", "coordinates": [[78.914795, 40.866188], [79.530029, 41.007357]]}, "properties": {"names": [{"toponym": "Munduz (Qïrghïz tribe)"}], "types": [{"label": "cultural group", "identifier": "aat:300387171", "sourceLabel": "ethnic group"}], "map_id": 98, "leaflet_id": 1851}}, {"type": "Feature", "when": {"timespans": [{"end": {"latest": "2000"}, "start": {"earliest": "1900"}}]}, "geometry": {"type": "LineString", "coordinates": [[77.557983, 40.50359], [78.898315, 40.64553]]}, "properties": {"names": [{"toponym": "Qushchu (Qïrghïz tribe)"}], "types": [{"label": "cultural group", "identifier": "aat:300387171", "sourceLabel": "ethnic group"}], "map_id": 98, "leaflet_id": 1873}}, {"type": "Feature", "when": {"timespans": [{"end": {"latest": "2000"}, "start": {"earliest": "1900"}}]}, "geometry": {"type": "LineString", "coordinates": [[76.613159, 40.703888], [77.788696, 40.862031]]}, "properties": {"names": [{"toponym": "Qushchu (Qïrghïz tribe)"}], "types": [{"label": "cultural group", "identifier": "aat:300387171", "sourceLabel": "ethnic group"}], "map_id": 98, "leaflet_id": 1894}}, {"type": "Feature", "when": {"timespans": [{"end": {"latest": "2000"}, "start": {"earliest": "1900"}}]}, "geometry": {"type": "LineString", "coordinates": [[75.220642, 40.46718], [75.618896, 40.152843], [76.16272, 40.104516]]}, "properties": {"names": [{"toponym": "Chong-Bagïsh (Qïrghïz tribe)"}], "types": [{"label": "cultural group", "identifier": "aat:300387171", "sourceLabel": "ethnic group"}], "map_id": 98, "leaflet_id": 2416}}, {"type": "Feature", "when": {"timespans": [{"end": {"latest": "2000"}, "start": {"earliest": "1900"}}]}, "geometry": {"type": "LineString", "coordinates": [[75.140991, 40.406522], [75.704041, 39.646866]]}, "properties": {"names": [{"toponym": "Chong-Bagïsh (Qïrghïz tribe)"}], "types": [{"label": "cultural group", "identifier": "aat:300387171", "sourceLabel": "ethnic group"}], "map_id": 98, "leaflet_id": 2440}}, {"type": "Feature", "when": {"timespans": [{"end": {"latest": "2000"}, "start": {"earliest": "1900"}}]}, "geometry": {"type": "LineString", "coordinates": [[74.421387, 40.783638], [75.091553, 40.662841]]}, "properties": {"names": [{"toponym": "Basïz (Qïrghïz tribe)"}], "types": [{"label": "cultural group", "identifier": "aat:300387171", "sourceLabel": "ethnic group"}], "map_id": 98, "leaflet_id": 3379}}, {"type": "Feature", "when": {"timespans": [{"end": {"latest": "2000"}, "start": {"earliest": "1900"}}]}, "geometry": {"type": "LineString", "coordinates": [[73.210144, 41.132294], [74.204407, 41.005912]]}, "properties": {"names": [{"toponym": "Basïz (Qïrghïz tribe)"}], "types": [{"label": "cultural group", "identifier": "aat:300387171", "sourceLabel": "ethnic group"}], "map_id": 98, "leaflet_id": 3403}}, {"type": "Feature", "when": {"timespans": [{"end": {"latest": "2000"}, "start": {"earliest": "1900"}}]}, "geometry": {"type": "LineString", "coordinates": [[73.344727, 40.883442], [73.998413, 40.777395]]}, "properties": {"names": [{"toponym": "Munduz (Qïrghïz tribe)"}], "types": [{"label": "cultural group", "identifier": "aat:300387171", "sourceLabel": "ethnic group"}], "map_id": 98, "leaflet_id": 3427}}, {"type": "Feature", "when": {"timespans": [{"end": {"latest": "2000"}, "start": {"earliest": "1900"}}]}, "geometry": {"type": "LineString", "coordinates": [[72.866821, 41.283168], [73.506775, 41.421382]]}, "properties": {"names": [{"toponym": "Munduz (Qïrghïz tribe)"}], "types": [{"label": "cultural group", "identifier": "aat:300387171", "sourceLabel": "ethnic group"}], "map_id": 98, "leaflet_id": 3668}}, {"type": "Feature", "when": {"timespans": [{"end": {"latest": "2000"}, "start": {"earliest": "1900"}}]}, "geometry": {"type": "LineString", "coordinates": [[72.460327, 40.856375], [72.69104, 41.334775]]}, "properties": {"names": [{"toponym": "Munduz (Qïrghïz tribe)"}], "types": [{"label": "cultural group", "identifier": "aat:300387171", "sourceLabel": "ethnic group"}], "map_id": 98, "leaflet_id": 3689}}, {"type": "Feature", "when": {"timespans": [{"end": {"latest": "2000"}, "start": {"earliest": "1900"}}]}, "geometry": {"type": "LineString", "coordinates": [[71.743469, 41.063902], [72.122498, 41.301751]]}, "properties": {"names": [{"toponym": "Saruu (Qïrghïz tribe)"}], "types": [{"label": "cultural group", "identifier": "aat:300387171", "sourceLabel": "ethnic group"}], "map_id": 98, "leaflet_id": 3712}}, {"type": "Feature", "when": {"timespans": [{"end": {"latest": "2000"}, "start": {"earliest": "1900"}}]}, "geometry": {"type": "LineString", "coordinates": [[71.733856, 41.812947], [72.325745, 41.775044]]}, "properties": {"names": [{"toponym": "Saruu (Qïrghïz tribe)"}], "types": [{"label": "cultural group", "identifier": "aat:300387171", "sourceLabel": "ethnic group"}], "map_id": 98, "leaflet_id": 4050}}, {"type": "Feature", "when": {"timespans": [{"end": {"latest": "2000"}, "start": {"earliest": "1900"}}]}, "geometry": {"type": "LineString", "coordinates": [[71.974182, 41.546673], [72.603149, 41.532274]]}, "properties": {"names": [{"toponym": "Munduz (Qïrghïz tribe)"}], "types": [{"label": "cultural group", "identifier": "aat:300387171", "sourceLabel": "ethnic group"}], "map_id": 98, "leaflet_id": 4192}}, {"type": "Feature", "when": {"timespans": [{"end": {"latest": "2000"}, "start": {"earliest": "1900"}}]}, "geometry": {"type": "LineString", "coordinates": [[71.158447, 41.829878], [71.795654, 41.622727]]}, "properties": {"names": [{"toponym": "Qushchu (Qïrghïz tribe)"}], "types": [{"label": "cultural group", "identifier": "aat:300387171", "sourceLabel": "ethnic group"}], "map_id": 98, "leaflet_id": 4214}}, {"type": "Feature", "when": {"timespans": [{"end": {"latest": "2000"}, "start": {"earliest": "1900"}}]}, "geometry": {"type": "LineString", "coordinates": [[71.372681, 41.831041], [72.262573, 42.458609]]}, "properties": {"names": [{"toponym": "Saruu (Qïrghïz tribe)"}], "types": [{"label": "cultural group", "identifier": "aat:300387171", "sourceLabel": "ethnic group"}], "map_id": 98, "leaflet_id": 4363}}, {"type": "Feature", "when": {"timespans": [{"end": {"latest": "2000"}, "start": {"earliest": "1900"}}]}, "geometry": {"type": "LineString", "coordinates": [[70.361938, 41.374849], [70.86731, 41.662913]]}, "properties": {"names": [{"toponym": "Qïtay (Qïrghïz tribe)"}], "types": [{"label": "cultural group", "identifier": "aat:300387171", "sourceLabel": "ethnic group"}], "map_id": 98, "leaflet_id": 4385}}, {"type": "Feature", "when": {"timespans": [{"end": {"latest": "2000"}, "start": {"earliest": "1900"}}]}, "geometry": {"type": "LineString", "coordinates": [[70.916748, 41.79827], [71.372681, 42.401814]]}, "properties": {"names": [{"toponym": "Qïtay (Qïrghïz tribe)"}], "types": [{"label": "cultural group", "identifier": "aat:300387171", "sourceLabel": "ethnic group"}], "map_id": 98, "leaflet_id": 4407}}, {"type": "Feature", "when": {"timespans": [{"end": {"latest": "2000"}, "start": {"earliest": "1900"}}]}, "geometry": {"type": "LineString", "coordinates": [[73.569946, 41.785977], [73.954468, 41.949695]]}, "properties": {"names": [{"toponym": "Basïz (Qïrghïz tribe)"}], "types": [{"label": "cultural group", "identifier": "aat:300387171", "sourceLabel": "ethnic group"}], "map_id": 98, "leaflet_id": 4434}}, {"type": "Feature", "when": {"timespans": [{"end": {"latest": "2000"}, "start": {"earliest": "1900"}}]}, "geometry": {"type": "LineString", "coordinates": [[72.372437, 42.352998], [72.553711, 42.446349], [72.943726, 42.442293], [73.207397, 42.308303]]}, "properties": {"names": [{"toponym": "Zhetigen (Qïrghïz tribe)"}], "types": [{"label": "cultural group", "identifier": "aat:300387171", "sourceLabel": "ethnic group"}], "map_id": 98, "leaflet_id": 4712}}, {"type": "Feature", "when": {"timespans": [{"end": {"latest": "2000"}, "start": {"earliest": "1900"}}]}, "geometry": {"type": "LineString", "coordinates": [[72.394409, 42.292042], [72.767944, 42.332686], [73.119507, 42.279844]]}, "properties": {"names": [{"toponym": "Qushchu (Qïrghïz tribe)"}], "types": [{"label": "cultural group", "identifier": "aat:300387171", "sourceLabel": "ethnic group"}], "map_id": 98, "leaflet_id": 4742}}, {"type": "Feature", "when": {"timespans": [{"end": {"latest": "2000"}, "start": {"earliest": "1900"}}]}, "geometry": {"type": "LineString", "coordinates": [[70.339966, 41.205434], [70.795898, 41.490132]]}, "properties": {"names": [{"toponym": "Saruu (Qïrghïz tribe)"}], "types": [{"label": "cultural group", "identifier": "aat:300387171", "sourceLabel": "ethnic group"}], "map_id": 98, "leaflet_id": 4763}}, {"type": "Feature", "when": {"timespans": [{"end": {"latest": "2000"}, "start": {"earliest": "1900"}}]}, "geometry": {"type": "LineString", "coordinates": [[80.914307, 42.474476], [81.271362, 42.519053], [81.743774, 42.474476], [82.380981, 42.308046]]}, "properties": {"names": [{"toponym": "Bugu (Qïrghïz tribe)"}], "types": [{"label": "cultural group", "identifier": "aat:300387171", "sourceLabel": "ethnic group"}], "map_id": 98, "leaflet_id": 3978}}, {"type": "Feature", "when": {"timespans": [{"end": {"latest": "2000"}, "start": {"earliest": "1900"}}]}, "geometry": {"type": "LineString", "coordinates": [[80.793457, 41.562279], [81.188965, 41.89862], [81.716309, 42.07021], [82.034912, 42.102841]]}, "properties": {"names": [{"toponym": "Bugu (Qïrghïz tribe)"}], "types": [{"label": "cultural group", "identifier": "aat:300387171", "sourceLabel": "ethnic group"}], "map_id": 98, "leaflet_id": 10418}}, {"type": "Feature", "when": {"timespans": [{"end": {"latest": "2000"}, "start": {"earliest": "1900"}}]}, "geometry": {"type": "LineString", "coordinates": [[82.232666, 42.086528], [82.485352, 42.110997], [82.727051, 42.094685]]}, "properties": {"names": [{"toponym": "Bugu (Qïrghïz tribe)"}], "types": [{"label": "cultural group", "identifier": "aat:300387171", "sourceLabel": "ethnic group"}], "map_id": 98, "leaflet_id": 10442}}, {"type": "Feature", "when": {"timespans": [{"end": {"latest": "2000"}, "start": {"earliest": "1900"}}]}, "geometry": {"type": "LineString", "coordinates": [[74.520264, 38.950811], [75.014648, 38.856803], [75.509033, 38.76267]]}, "properties": {"names": [{"toponym": "Adigine (Qïrghïz tribe)"}], "types": [{"label": "cultural group", "identifier": "aat:300387171", "sourceLabel": "ethnic group"}], "map_id": 98, "leaflet_id": 60524}}, {"type": "Feature", "when": {"timespans": [{"end": {"latest": "2000"}, "start": {"earliest": "1900"}}]}, "geometry": {"type": "LineString", "coordinates": [[74.53125, 39.520715], [74.893799, 39.368061], [75.212402, 39.223582]]}, "properties": {"names": [{"toponym": "Mungush (Qïrghïz tribe)"}], "types": [{"label": "cultural group", "identifier": "aat:300387171", "sourceLabel": "ethnic group"}], "map_id": 98, "leaflet_id": 60547}}, {"type": "Feature", "when": {"timespans": [{"end": {"latest": "2000"}, "start": {"earliest": "1900"}}]}, "geometry": {"type": "LineString", "coordinates": [[73.937988, 39.520715], [74.53125, 39.723732], [75.003662, 39.900883]]}, "properties": {"names": [{"toponym": "Mungush (Qïrghïz tribe)"}], "types": [{"label": "cultural group", "identifier": "aat:300387171", "sourceLabel": "ethnic group"}], "map_id": 98, "leaflet_id": 60570}}, {"type": "Feature", "when": {"timespans": [{"end": {"latest": "2000"}, "start": {"earliest": "1900"}}]}, "geometry": {"type": "LineString", "coordinates": [[74.157715, 40.035549], [74.608154, 40.228666], [75.113525, 40.404511]]}, "properties": {"names": [{"toponym": "Adigine (Qïrghïz tribe)"}], "types": [{"label": "cultural group", "identifier": "aat:300387171", "sourceLabel": "ethnic group"}], "map_id": 98, "leaflet_id": 60593}}, {"type": "Feature", "when": {"timespans": [{"end": {"latest": "2000"}, "start": {"earliest": "1900"}}]}, "geometry": {"type": "LineString", "coordinates": [[72.158203, 40.513137], [72.663574, 40.421234], [73.00415, 40.371052]]}, "properties": {"names": [{"toponym": "Mungush (Qïrghïz tribe)"}], "types": [{"label": "cultural group", "identifier": "aat:300387171", "sourceLabel": "ethnic group"}], "map_id": 98, "leaflet_id": 60616}}, {"type": "Feature", "when": {"timespans": [{"end": {"latest": "2000"}, "start": {"earliest": "1900"}}]}, "geometry": {"type": "LineString", "coordinates": [[72.509766, 39.850315], [73.190918, 40.178341], [74.036865, 40.463024]]}, "properties": {"names": [{"toponym": "Adigine (Qïrghïz tribe)"}], "types": [{"label": "cultural group", "identifier": "aat:300387171", "sourceLabel": "ethnic group"}], "map_id": 98, "leaflet_id": 60639}}, {"type": "Feature", "when": {"timespans": [{"end": {"latest": "2000"}, "start": {"earliest": "1900"}}]}, "geometry": {"type": "LineString", "coordinates": [[72.674561, 40.896097], [73.399658, 40.729863], [74.267578, 40.496437]]}, "properties": {"names": [{"toponym": "Adigine (Qïrghïz tribe)"}], "types": [{"label": "cultural group", "identifier": "aat:300387171", "sourceLabel": "ethnic group"}], "map_id": 98, "leaflet_id": 60662}}, {"type": "Feature", "when": {"timespans": [{"end": {"latest": "2000"}, "start": {"earliest": "1900"}}]}, "geometry": {"type": "LineString", "coordinates": [[72.487793, 41.721009], [73.114014, 42.21094]]}, "properties": {"names": [{"toponym": "Adigine (Qïrghïz tribe)"}], "types": [{"label": "cultural group", "identifier": "aat:300387171", "sourceLabel": "ethnic group"}], "map_id": 98, "leaflet_id": 60683}}, {"type": "Feature", "when": {"timespans": [{"end": {"latest": "2000"}, "start": {"earliest": "1900"}}]}, "geometry": {"type": "LineString", "coordinates": [[70.180664, 41.400655], [70.422363, 41.598058], [70.510254, 41.647314], [70.784912, 41.893033]]}, "properties": {"names": [{"toponym": "Mongoldor (Qïrghïz tribe)"}], "types": [{"label": "cultural group", "identifier": "aat:300387171", "sourceLabel": "ethnic group"}], "map_id": 98, "leaflet_id": 60892}}, {"type": "Feature", "when": {"timespans": [{"end": {"latest": "2000"}, "start": {"earliest": "1900"}}]}, "geometry": {"type": "LineString", "coordinates": [[73.927002, 42.324833], [74.267578, 42.616453], [74.542236, 42.818167]]}, "properties": {"names": [{"toponym": "Adigine (Qïrghïz tribe)"}], "types": [{"label": "cultural group", "identifier": "aat:300387171", "sourceLabel": "ethnic group"}], "map_id": 98, "leaflet_id": 60918}}, {"type": "Feature", "when": {"timespans": [{"end": {"latest": "2000"}, "start": {"earliest": "1900"}}]}, "geometry": {"type": "LineString", "coordinates": [[75.322266, 42.511542], [75.849609, 42.624773], [76.102295, 42.770054], [76.673584, 42.882815], [77.178955, 42.931079]]}, "properties": {"names": [{"toponym": "Sarï-Bagïsh (Qïrghïz tribe)"}], "types": [{"label": "cultural group", "identifier": "aat:300387171", "sourceLabel": "ethnic group"}], "map_id": 98, "leaflet_id": 60946}}, {"type": "Feature", "when": {"timespans": [{"end": {"latest": "2000"}, "start": {"earliest": "1900"}}]}, "geometry": {"type": "LineString", "coordinates": [[77.409668, 41.392027], [78.376465, 41.720741], [79.365234, 42.16185]]}, "properties": {"names": [{"toponym": "Bugu (Qïrghïz tribe)"}], "types": [{"label": "cultural group", "identifier": "aat:300387171", "sourceLabel": "ethnic group"}], "map_id": 98, "leaflet_id": 61691}}, {"fid": 443, "type": "Feature", "when": {"timespans": [{"end": {"latest": "2000"}, "start": {"earliest": "1900"}}]}, "geometry": {"type": "Point", "coordinates": [68.027344, 36.274537]}, "properties": {"names": [{"toponym": "Semengan"}, {"toponym": "Yarkend"}], "types": [{"label": "inhabited place", "identifier": "aat:300008347", "sourceLabel": "settlement"}], "map_id": 70, "leaflet_id": 10075.98}}]}
